NEXTSAT-1               
1 43811U 18099BF  26068.68342010  .00004546  00000+0  29857-3 0  9992
2 43811  97.4203 114.8574 0011320 323.9610  36.0854 15.08057555396886
STARLINK-34909          
1 65401U 25191Y   26068.63982076  .00005148  00000+0  36068-3 0  9990
2 65401  97.6021 301.5048 0002553  79.2579 280.8935 15.05650911 30278
